    CK09W020  2010 05  2.7781  6.909520  0.998159  121.4256  199.5885  164.4886  20110827   7.0  4.0  C/2009 W2 (Boattini)                                     MPC 72851
    CK09Y010  2011 01 28.9050  2.520540  0.993395  127.3950  160.2808  107.3051  20110827   9.0  4.0  C/2009 Y1 (Catalina)                                     MPEC 2011-Q34
    CK10B010  2011 02  7.1069  2.941599  0.998929  211.5347  277.2133  101.9762  20110827   7.5  4.0  C/2010 B1 (Cardinal)                                     MPC 75515
    PK10C010  2009 11 30.4567  5.233056  0.259948    3.5623  142.0106    9.1383  20110827   9.5  4.0  P/2010 C1 (Scotti)                                       MPC 75008
    CK10D030  2010 09  3.9575  4.247245  0.999756  304.6490  255.2298   76.4048  20110827   9.0  4.0  C/2010 D3 (WISE)                                         MPC 70816
    CK10D040  2009 03 30.7252  7.147722  0.889269   44.4865  266.8183  105.6624  20110827   6.5  4.0  C/2010 D4 (WISE)                                         MPC 74247
    CK10F030  2010 08  3.9534  5.445805  0.912793   31.2004  157.4038    4.6473  20110827   8.5  4.0  C/2010 F3 (Scotti)                                       MPC 75292
    CK10F87B  2010 11  7.3823  2.842845  0.990402  265.0272   89.9033  107.6242  20110827  10.0  4.0  C/2010 FB87 (WISE-Garradd)                               MPC 75515
    CK10G020  2011 09  2.0511  1.980785  0.979434  137.4256  246.7811  103.7454  20110827   8.0  4.0  C/2010 G2 (Hill)                                         MPEC 2011-Q34
    CK10G030  2010 04 11.1807  4.907727  0.998737   75.2128  313.7358  108.2605  20110827   8.5  4.0  C/2010 G3 (WISE)                                         MPC 75292
    PK10H020  2010 03  8.2791  3.106710  0.192468  129.9167   64.3089   14.2567  20110827   6.0  4.0  P/2010 H2 (Vales)                                        MPC 72851
    PK10H040  2010 06 18.8054  4.829707  0.267956  179.6582   44.8290    2.3220  20110827  10.5  4.0  P/2010 H4 (Scotti)                                       MPC 73463
    PK10H050  2010 04 13.2279  6.024655  0.155617  174.8119   24.9003   14.0893  20110827  13.0  2.0  P/2010 H5 (Scotti)                                       MPC 74637
    CK10J020  2010 06  3.9827  3.387505  0.999668    4.6476  311.8052  125.8556  20110827   9.0  4.0  C/2010 J2 (McNaught)                                     MPC 75712
    PK10J030  2010 08 23.6266  2.456242  0.726916  157.3947  106.6444   13.2525  20110827  11.0  4.0  P/2010 J3 (McMillan)                                     MPC 75712
    PK10J050  2009 11  4.1619  3.748208  0.086918  150.0496   65.6694    7.3563  20110827  10.0  4.0  P/2010 J5 (McNaught)                                     MPC 75292
    PK10J81C  2011 04 26.5501  1.810727  0.777418   12.5680   30.7683   38.6902  20110827   9.0  4.0  P/2010 JC81 (WISE)                                       MPEC 2011-Q34
    CK10K07W  2010 10 11.3735  2.570944  0.974109  332.3297  104.7686  147.0644  20110827  15.0  2.0  C/2010 KW7 (WISE)                                        MPC 74248
    CK10L030  2010 11 10.2142  9.882723  1.000316  121.7594   38.2696  102.6356  20110827   4.5  4.0  C/2010 L3 (Catalina)                                     MPC 75712
    CK10M010  2012 02  7.840   2.29869   1.00000   265.318    82.150    78.373              9.0  4.0  C/2010 M1 (Gibbs)                                        MPC 70817
    CK10R010  2012 05 19.1753  5.621114  1.003355  114.5116  343.6353  156.9346  20110827   6.0  4.0  C/2010 R1 (LINEAR)                                       MPEC 2011-Q34
    PK10R020  2010 06 24.2950  2.620738  0.153701   59.2473  270.6533   21.4095  20110827  13.0  4.0  P/2010 R2 (La Sagra)                                     MPC 73916
    CK10S010  2013 05 20.2529  5.901348  1.000106  118.5955   93.4398  125.3360  20110827   3.5  4.0  C/2010 S1 (LINEAR)                                       MPEC 2011-Q34
    PK10T010  2010 10 25.1338  3.214963  0.313131  220.5517  129.9998   32.5153  20110827  11.0  4.0  P/2010 T1 (McNaught)                                     MPC 73916
    PK10T020  2011 07 10.9893  3.752798  0.319544  356.1587   59.5920    8.0266  20110827  11.5  4.0  P/2010 T2 (PANSTARRS)                                    MPC 74248
    PK10U010  2010 03 28.0359  4.904389  0.258651   89.1043  281.2905    8.2564  20110827   9.5  4.0  P/2010 U1 (Boattini)                                     MPC 75713
    PK10U020  2010 11  9.3281  2.552978  0.402522   44.2536  357.1486   16.8606  20110827  13.0  4.0  P/2010 U2 (Hill)                                         MPC 74249
    CK10U030  2019 03  3.4513  8.481289  0.998284   87.9071   43.0318   55.4132  20110827   1.0  4.0  C/2010 U3 (Boattini)                                     MPEC 2011-Q34
    PK10V010  2010 10 13.0841  1.577201  0.486237  152.2663    3.8022    9.3793  20110827   8.0  4.0  P/2010 V1 (Ikeya-Murakami)                               MPC 74249
    PK10W00K  2010 10 19.7867  1.765481  0.692078   40.8685   11.4893   11.4789  20110827  14.5  2.0  P/2010 WK (LINEAR)                                       MPC 75009
    CK10X010  2011 09 10.7226  0.482465  1.000028  343.8056  323.2267    1.8392  20110827  10.0  4.0  C/2010 X1 (Elenin)                                       MPC 75713
    CK11A030  2011 12 16.0888  2.344863  0.997938  141.1624  124.8931   26.0744  20110827  10.0  4.0  C/2011 A3 (Gibbs)                                        MPEC 2011-Q34
    CK11C010  2011 04 18.0105  0.883420  0.997562   84.4811  192.4382   16.8251  20110827  15.5  4.0  C/2011 C1 (McNaught)                                     MPEC 2011-Q34
    PK11C020  2012 01  9.8014  5.386839  0.268951  160.7405   12.2031   10.9110  20110827   9.0  4.0  P/2011 C2 (Gibbs)                                        MPC 75293
    CK11F010  2013 01  8.0647  1.818178  0.999898  192.5822   85.1291   56.6108  20110827   5.0  4.0  C/2011 F1 (LINEAR)                                       MPEC 2011-Q34
    CK11G010  2011 09 16.4038  2.155200  1.001205  354.5451  152.5890  162.2343  20110827  12.0  4.0  C/2011 G1 (McNaught)                                     MPC 75516
    CK11J020  2013 12 25.5914  3.448898  1.000332   85.1991  163.9350  122.8433  20110827   6.0  4.0  C/2011 J2 (LINEAR)                                       MPC 75293
    PK11J15B  2012 01 23.3090  5.016558  0.319210  111.1228  153.7483   19.1407  20110827   9.0  4.0  P/2011 JB15 (Spacewatch-Boattini)                        MPC 75713
    CK11K010  2011 04 21.8495  3.374887  1.001050  167.0888   70.7412  122.5818  20110827  12.0  4.0  C/2011 K1 (Schwartz-Holvorcem)                           MPC 75516
    CK11L010  2010 12 18.2966  2.242213  0.796905  294.4642  252.3637   65.5157  20110827  11.0  4.0  C/2011 L1 (McNaught)                                     MPEC 2011-Q05
    CK11L020  2011 11  1.2795  1.943379  1.001716  257.0317  131.3473  104.2569  20110827  12.5  4.0  C/2011 L2 (McNaught)                                     MPEC 2011-Q34
    CK11L030  2011 08 10.5045  1.923854  1.000185   27.7294  307.7557   87.1156  20110827  12.5  4.0  C/2011 L3 (McNaught)                                     MPEC 2011-Q34
    CK11L040  2013 03 10.9945  0.301851  0.999904  333.6634   65.6483   84.4245  20110827   5.5  4.0  C/2011 L4 (PANSTARRS)                                    MPEC 2011-Q34
    CK11M010  2011 09  7.5795  0.895624  1.002430  119.5817  324.7935   70.1832  20110827  12.0  4.0  C/2011 M1 (LINEAR)                                       MPC 75714
    PK11N010  2012 05 31.3917  2.857305  0.544995  331.0927   77.6719   35.6644  20110827  11.5  4.0  P/2011 N1                                                MPEC 2011-Q34
    PK11N01O  2011 01 20.5217  1.243876  0.775072  263.6313  296.0936   15.2522  20110827  15.0  4.0  P/2011 NO1                                               MPC 75714
    CK11N020  2011 10 18.6902  2.563961  0.998504  357.0121  274.0142   33.6788  20110827  11.5  4.0  C/2011 N2 (McNaught)                                     MPEC 2011-Q34
    CK11O010  2012 08 18.5336  3.891712  0.995482  232.3651   89.8172   76.5016  20120821   7.0  4.0  C/2011 O1 (LINEAR)                                       MPEC 2011-Q34
    PK11P010  2010 06 29.6091  4.855593  0.436739  338.2036    9.9739    6.2688  20110827   9.0  4.0  P/2011 P1 (McNaught)                                     MPEC 2011-Q34
    CK11P020  2010 09 18.9659  6.162920  0.365899   76.9221  203.9843    8.9927  20110827   8.5  4.0  C/2011 P2 (PANSTARRS)                                    MPEC 2011-Q34
    CK11Q010  2011 09 24.0701  6.766957  1.000000  142.8033  142.4984   94.5624             9.5  4.0  C/2011 Q1 (PANSTARRS)                                    MPEC 2011-Q34
0002P         2010 08  6.4364  0.336190  0.848176  186.5506  334.5717   11.7784  20110827  11.5  6.0  2P/Encke                                                 MPC 75714
0009P         2011 01 12.3896  1.510561  0.516507  178.9484   68.9037   10.5224  20110827   5.5 10.0  9P/Tempel                                                MPC 75715
0010P         2010 07  4.8127  1.421906  0.536282  195.6154  117.8032   12.0238  20110827   5.0 10.0  10P/Tempel                                               MPC 75715
0017P         2014 03 26.9640  2.054844  0.432575   24.4499  326.8250   19.0973  20110827  10.0  6.0  17P/Holmes                                               MPC 75731
0021P         2012 02 11.7225  1.030555  0.707052  172.5952  195.3979   31.9106  20110827   9.0  6.0  21P/Giacobini-Zinner                                     MPC 75715
0027P         2011 08  3.8091  0.747872  0.918745  195.9809  250.6377   28.9565  20110827  12.0  8.0  27P/Crommelin                                            MPC 62881
0029P         2004 07 26.4994  5.728616  0.044470   50.1256  312.6006    9.3829  20110827   4.0  4.0  29P/Schwassmann-Wachmann                                 MPC 75716
